1 90039U 19090A   19268.58971383  +.00002482 +00000-0 23852-3 0 00209      
2 90039 097.8731 000.9077 0009372 286.2692 203.1718 15.31914893000012